C/2019 F1 (ATLAS-Africano),h,06/22.9168/2021,54.1745,38.7219,251.1438,1.003748,3.595782,2000,5.5,4.0
# From MPEC 2021-P47
C/2019 F2 (ATLAS),e,19.2213,175.5879,11.4967,16.69174,0.0144528,0.86560604,11.1606,10/20.0/2021,2000,g 12.0,4.0
# From MPEC 2021-P47
A/2019 G2,e,159.2049,208.1507,82.6165,589.3217,0.0000689,0.99611282,0.0000,12/09.8271/2019,2000,g 16.5,2.0
# From MPEC 2021-N06
A/2019 G4,h,09/16.1435/2018,138.3838,130.4641,287.8662,1.002015,5.856458,2000,13.0,2.0
# From MPC114607
P/2019 GG21 (PANSTARRS),e,6.0842,340.5709,208.5997,7.474406,0.0482324,0.47255473,43.0729,10/20.0/2021,2000,g 12.0,4.0
# From MPC115885
C/2019 H1 (NEOWISE),e,104.5477,269.2144,19.3441,240.5066,0.0002642,0.99232308,0.0000,04/27.8905/2019,2000,g 15.5,4.0
# From MPC118842
C/2019 J1 (Lemmon),e,24.5496,98.1030,167.7953,69.30313,0.0017083,0.96419510,1.5803,10/20.0/2021,2000,g 12.0,4.0
# From MPEC 2021-R75
C/2019 J2 (Palomar),e,105.2015,25.5221,98.7366,160.2173,0.0004860,0.98922678,0.0000,07/19.7931/2019,2000,g 13.0,4.0
# From MPC117071
C/2019 J3 (ATLAS),h,08/02.0887/2019,131.4019,270.5441,16.6130,1.000550,2.374586,2000,13.5,4.0
# From MPC117071
C/2019 JU6 (ATLAS),e,148.3189,21.7610,94.9460,354.0469,0.0001479,0.99421923,0.0000,06/01.0196/2019,2000,g 14.5,4.0
# From MPEC 2021-P47
C/2019 K1 (ATLAS),h,02/13.0043/2020,87.1201,73.3730,265.7140,1.000056,2.012575,2000,10.0,4.0
# From MPC119997
C/2019 K4 (Ye),e,105.2980,180.1493,139.7844,1343,0.0000200,0.99831600,0.0000,06/16.1246/2019,2000,g 12.5,4.0
# From MPEC 2021-P47
C/2019 K5 (Young),e,15.3175,177.1389,175.0240,161.6748,0.0004794,0.98740405,0.0000,06/22.9963/2019,2000,g 13.0,4.0
# From MPEC 2021-P47
C/2019 K6 (PANSTARRS),e,132.3828,42.9588,187.6399,1933,0.0000116,0.99796709,0.0000,05/20.2870/2020,2000,g 11.5,4.0
# From MPEC 2021-U31
C/2019 K7 (Smith),h,06/17.1798/2020,103.5422,307.9310,27.3412,1.000117,4.476189,2000,6.0,4.0
# From MPEC 2021-R75
C/2019 K8 (ATLAS),e,93.2082,291.0473,85.3966,2435,0.0000082,0.99868788,0.0000,07/21.6285/2019,2000,g 11.5,4.0
# From MPC118095
C/2019 L1 (PANSTARRS),e,9.9898,254.4210,49.9934,9.841071,0.0319257,0.70599773,25.5602,10/20.0/2021,2000,g 13.5,4.0
# From MPC115886
C/2019 L2 (NEOWISE),e,152.1961,12.5628,18.7708,24.87887,0.0079425,0.93478638,7.4050,10/20.0/2021,2000,g 16.0,4.0
# From MPEC 2021-U31
P/2019 LD2 (ATLAS),e,11.6098,179.5831,122.5283,5.254668,0.0818250,0.12927939,46.5066,10/20.0/2021,2000,g  8.5,4.0
# From MPEC 2021-U31
C/2019 L3 (ATLAS),h,01/09.6288/2022,48.3634,290.7894,171.6129,1.001441,3.554490,2000,4.5,4.0
# From MPC118095
C/2019 LB7 (Kleyna),e,164.2912,3.8979,336.4777,34.56971,0.0048491,0.92813851,4.5503,10/20.0/2021,2000,g 17.0,4.0
# From MPC118843
P/2019 M2 (ATLAS),e,12.2808,307.6011,332.5807,3.027412,0.1871099,0.64806584,159.1245,10/20.0/2021,2000,g 21.2,4.0
# From MPC118095
C/2019 M3 (ATLAS),h,01/02.1262/2019,99.4780,154.9060,87.8939,1.000432,2.418974,2000,12.2,4.0
# From MPEC 2021-R75
C/2019 N1 (ATLAS),e,82.4278,13.5762,193.4418,7390,0.0000016,0.99976932,0.0000,12/01.7766/2020,2000,g  7.5,4.0
# From MPEC 2021-N06
C/2019 NJ3 (Lemmon),h,10/22.5146/2020,99.4386,142.4543,246.8721,1.001392,4.362067,2000,9.0,4.0
# From MPEC 2021-U31
A/2019 O2,e,93.2915,48.2942,129.6672,57.37017,0.0022682,0.83122588,358.7868,10/20.0/2021,2000,g  9.5,2.0
# From MPEC 2021-U31
C/2019 O3 (Palomar),h,03/08.5834/2021,89.8171,300.3854,60.0809,1.003138,8.819675,2000,3.5,4.0
# From MPEC 2021-P47
A/2019 O4,e,115.0929,354.9099,61.8589,32.99028,0.0052015,0.88949050,3.2133,10/20.0/2021,2000,g 15.5,2.0
# From MPEC 2021-N06
C/2019 Q1 (Lemmon),h,07/20.2241/2020,155.7253,42.4710,56.1271,1.000430,4.998790,2000,8.5,4.0
# From MPC117072
A/2019 Q2,e,159.0262,188.0202,176.3063,57.17733,0.0022797,0.97799069,0.0000,07/22.1282/2019,2000,g 18.0,2.0
# From MPC117072
C/2019 Q3 (PANSTARRS),h,08/21.5386/2018,65.5251,151.3225,152.7287,1.003538,7.257380,2000,8.5,4.0
# From MPC117072
P/2019 S2 (PANSTARRS),e,10.4715,93.1360,216.9969,4.738555,0.0955510,0.20660946,92.7539,10/20.0/2021,2000,g 13.5,4.0
# From MPC118096
P/2019 S3 (PANSTARRS),e,8.6948,150.1599,212.9949,3.415018,0.1561761,0.47111528,122.6863,10/20.0/2021,2000,g 18.3,4.0
# From MPEC 2021-S45
C/2019 S4 (Lemmon),e,92.0341,63.1587,71.3664,231.1160,0.0002805,0.98510576,0.0000,04/07.9142/2020,2000,g 11.0,4.0
# From MPEC 2021-U31
A/2019 T1,e,120.8720,6.9486,91.0523,38.35355,0.0041495,0.88835879,1.1559,10/20.0/2021,2000,g 13.0,2.0
# From MPEC 2021-P47
C/2019 T2 (Lemmon),e,111.4890,155.6424,239.3962,2015,0.0000109,0.99868667,0.0000,04/22.3030/2021,2000,g  9.0,4.0
# From MPEC 2021-U31
C/2019 T3 (ATLAS),e,121.8618,139.5214,112.3114,3060,0.0000058,0.99805672,0.0000,03/03.0536/2021,2000,g  6.8,4.0
# From MPEC 2021-TD0
C/2019 T4 (ATLAS),e,53.6242,199.9420,351.2117,1019,0.0000303,0.99583487,0.0000,06/09.2132/2022,2000,g  5.0,4.0
# From MPEC 2021-P47
P/2019 T5 (ATLAS),e,33.4409,247.6647,189.5689,7.996881,0.0435836,0.80911009,35.3390,10/20.0/2021,2000,g 15.0,4.0
# From MPEC 2021-P47
P/2019 T6 (PANSTARRS),e,18.6948,71.2803,328.9154,5.434823,0.0777904,0.62270749,55.3931,10/20.0/2021,2000,g 15.5,4.0
# From MPC118096
P/2019 U4 (PANSTARRS),e,11.6952,200.0071,180.9801,3.520452,0.1492129,0.47571336,113.7567,10/20.0/2021,2000,g 19.0,4.0
# From MPEC 2021-U31
C/2019 U5 (PANSTARRS),h,03/30.1001/2023,113.5191,2.6411,181.5468,1.000905,3.623065,2000,4.5,4.0
# From MPEC 2021-P47
C/2019 U6 (Lemmon),e,60.9985,235.7020,329.6513,389.7826,0.0001281,0.99765423,0.0000,06/18.7439/2020,2000,g 10.0,4.0
# From MPC119998
C/2019 V1 (Borisov),e,61.8665,83.1930,51.1809,1566,0.0000159,0.99802298,0.0000,07/16.4466/2020,2000,g 11.0,4.0
# From MPEC 2021-P47
P/2019 V2 (Groeller),e,11.8061,189.1800,335.9474,7.509286,0.0478968,0.33147065,17.5227,10/20.0/2021,2000,g 10.0,4.0
# From MPC119998
P/2019 W1 (PANSTARRS),e,23.4654,35.3873,18.6837,4.549796,0.1015585,0.26651844,91.0152,10/20.0/2021,2000,g 12.9,4.0
# From MPEC 2021-P47
P/2019 X1 (Pruyne),e,10.2462,43.6835,36.7963,6.172939,0.0642638,0.30297570,52.8077,10/20.0/2021,2000,g 10.4,4.0
# From MPC119999
C/2019 Y1 (ATLAS),e,73.2912,31.5273,57.9578,85.64704,0.0012435,0.99029534,0.0000,03/15.6009/2020,2000,g 13.7,4.0
# From MPEC 2020-L06
C/2019 Y4 (ATLAS),h,05/31.0503/2020,45.8108,120.9380,177.2718,1.001388,0.251507,2000,11.6,6.0
# From MPEC 2020-L06
C/2019 Y4-A (ATLAS),h,05/31.0503/2020,45.8108,120.9380,177.2718,1.001388,0.251507,2000,11.6,6.0
# From MPEC 2020-L06
C/2019 Y4-B (ATLAS),e,45.4453,120.6339,177.4049,1334,0.0000202,0.99981031,0.0000,05/31.0289/2020,2000,g 12.8,6.0
# From MPEC 2020-L06
C/2019 Y4-C (ATLAS),h,05/31.0080/2020,45.5929,120.6639,177.3052,1.002107,0.252561,2000,12.7,6.0
# From MPEC 2020-L06
C/2019 Y4-D (ATLAS),e,45.6347,121.0439,177.4434,68.03606,0.0017563,0.99629689,0.0000,05/31.1267/2020,2000,g 12.5,6.0
# From MPEC 2021-P47
C/2019 Y5 (PANSTARRS),e,82.8037,51.7760,303.5129,819.8655,0.0000420,0.99400506,0.0000,08/18.2419/2019,2000,g 11.0,4.0
# From MPEC 2020-L06
C/2020 A2 (Iwamoto),e,120.7286,286.3698,68.1866,1366,0.0000195,0.99928455,0.0000,01/08.4484/2020,2000,g 13.5,4.0
# From MPEC 2020-L06
C/2020 A3 (ATLAS),h,07/29.8570/2019,146.7732,120.3813,271.1708,1.025902,5.838784,2000,8.0,4.0
# From MPEC 2020-L06
C/2020 B3 (Rankin),e,20.7089,185.8389,325.0275,1166,0.0000248,0.99713226,0.0000,10/19.5643/2019,2000,g 13.0,4.0
# From MPEC 2021-R75
C/2020 F2 (ATLAS),h,07/16.1969/2022,163.5810,250.2607,48.3684,1.004241,8.816979,2000,4.5,4.0
# From MPEC 2021-O56
C/2020 F3 (NEOWISE),e,128.9609,61.0186,37.2880,339.3486,0.0001577,0.99913108,0.0000,07/03.6309/2020,2000,g  7.5,5.2
# From MPEC 2021-U31
C/2020 F5 (MASTER),h,03/24.6213/2021,51.7643,350.5898,311.1390,1.005852,4.326310,2000,6.5,3.2
# From MPEC 2020-L06
C/2020 F6 (PANSTARRS),e,174.5826,207.8942,344.6207,408.4925,0.0001194,0.99140540,0.0000,04/11.7371/2020,2000,g 14.5,2.8
# From MPEC 2021-P47
C/2020 F7 (Lemmon),e,93.9536,321.8869,227.9701,698.4379,0.0000534,0.99236565,0.0000,11/14.0101/2021,2000,g  7.0,4.0
# From MPEC 2020-KB7
C/2020 F8 (SWAN),e,110.7590,259.9824,68.1927,270.4866,0.0002216,0.99841054,0.0000,05/27.5871/2020,2000,g 10.0,4.0
# From MPEC 2020-L06
P/2020 G1 (Pimentel),e,18.4821,240.0960,207.6449,3.609728,0.1437117,0.85992354,83.5902,10/20.0/2021,2000,g 17.0,4.0
# From MPEC 2020-L06
C/2020 H2 (Pruyne),e,125.0222,277.6459,26.7074,191.6526,0.0003715,0.99565085,0.0000,04/27.6581/2020,2000,g 18.0,4.0
# From MPEC 2020-HM1
C/2020 H3 (Wierzchos),p,06/05.7162/2020,62.5292,30.4456,2.300288,270.6227,2000,13.5,4.0
# From MPEC 2020-L06
C/2020 H4 (Leonard),e,84.5130,307.7326,117.5874,48.07014,0.0029573,0.98072496,0.0000,08/29.5400/2020,2000,g 15.0,3.2
# From MPEC 2021-O56
C/2020 H5 (Robinson),e,70.2305,210.6313,326.4026,3456,0.0000049,0.99729627,0.0000,12/11.9604/2020,2000,g  5.0,4.0
# From MPEC 2021-R75
C/2020 H6 (ATLAS),h,10/01.0707/2021,79.9685,213.7070,20.3472,1.000687,4.702892,2000,8.0,3.2
# From MPEC 2020-KB7
C/2020 H7 (Lemmon),e,135.9235,323.5194,82.6780,1405,0.0000187,0.99685380,0.0000,06/02.9510/2020,2000,g 11.0,4.0
# From MPEC 2021-N06
C/2020 H8 (PANSTARRS),e,99.6506,68.4086,128.9414,593.2716,0.0000682,0.99211898,0.0000,06/04.4673/2020,2000,g 10.5,4.0
# From MPEC 2020-L06
A/2020 H9,e,137.8823,213.1393,312.9151,564.7200,0.0000734,0.99543238,0.0000,12/21.4530/2019,2000,g 18.0,2.0
# From MPEC 2021-S45
C/2020 J1 (SONEAR),h,04/18.6109/2021,142.2963,226.5827,341.7566,1.000452,3.355197,2000,8.5,3.2
# From MPEC 2021-U31
C/2020 K1 (PANSTARRS),e,89.6572,94.3620,213.9705,11053,0.0000008,0.99972190,0.0000,05/09.0994/2023,2000,g  5.5,4.0
# From MPEC 2021-N06
C/2020 K2 (PANSTARRS),h,08/05.7008/2020,91.0380,288.3518,67.3201,1.003058,8.878825,2000,10.8,4.0
# From MPEC 2020-KF9
C/2020 K3 (Leonard),p,06/01.0032/2020,129.0152,64.4924,1.583069,28.3546,2000,14.5,4.0
# From MPEC 2020-L06
C/2020 K4 (PANSTARRS),e,125.5686,264.1096,308.7969,23.89028,0.0084406,0.92658953,5.0246,10/20.0/2021,2000,g 16.5,4.0
# From MPEC 2021-R75
C/2020 K5 (PANSTARRS),h,06/05.5739/2021,67.1510,86.1648,249.5913,1.001510,1.535703,2000,11.0,4.0
# From MPEC 2021-U31
